STARLINK-30810          
1 58178U 23167D   26067.27332530 -.00002157  00000+0 -70786-4 0  9992
2 58178  42.9955 150.9596 0000513 285.2891  74.7904 15.26740310130772
YAOGAN-43 01G           
1 60464U 24148G   26068.44348481  .00010133  00000+0  35873-3 0  9993
2 60464  35.0006  62.0013 0007382 306.3543  53.6492 15.28332833 87004
